     2.100          NAVIGATION                              RINEX VERSION / TYPE
fic2rin                                 12/08/2016 00:15:18 PGM / RUN BY / DATE
                                                            END OF HEADER
27 16 12  7 13 59 44.0  .175912864506D-03  .534328137292D-11  .000000000000D+00
     .370000000000D+02  .147187500000D+02  .442089843388D-08 -.429345808639D+00
     .778585672379D-06  .401019956917D-02  .598467886448D-05  .515365688324D+04
     .309584000000D+06  .763684511185D-07 -.442122070559D+00  .149011611938D-07
     .973517423685D+00  .270875000000D+03  .300873106561D+00 -.824177187431D-08
     .320370487574D-09  .100000000000D+01  .192600000000D+04  .000000000000D+00
     .240000000000D+01  .000000000000D+00  .139698386192D-08  .370000000000D+02
     .302406000000D+06  .400000000000D+01
 2 16 12  7 14  0  0.0  .514237675816D-03 -.579802872380D-11  .000000000000D+00
     .350000000000D+02 -.659062500000D+02  .508485466175D-08 -.217061038648D+01
    -.335276126862D-05  .162487485213D-01  .504590570927D-05  .515368821335D+04
     .309600000000D+06  .234693288803D-06  .565424852329D+00 -.502914190292D-07
     .944866519815D+00  .268843750000D+03 -.205942928686D+01 -.819641284207D-08
     .140005831805D-09  .100000000000D+01  .192600000000D+04  .000000000000D+00
     .240000000000D+01  .000000000000D+00 -.200234353542D-07  .350000000000D+02
     .302406000000D+06  .400000000000D+01
 3 16 12  7 14  0  0.0 -.101712532341D-03 -.159161572810D-11  .000000000000D+00
     .530000000000D+02 -.238750000000D+02  .451768817985D-08  .225117286232D+01
    -.127404928207D-05  .387482927181D-03  .116266310215D-04  .515356857300D+04
     .309600000000D+06 -.204890966415D-07  .165719278389D+01  .130385160446D-07
     .959126663430D+00  .151406250000D+03  .887068333728D+00 -.794247369305D-08
    -.353586156854D-10  .100000000000D+01  .192600000000D+04  .000000000000D+00
     .240000000000D+01  .000000000000D+00  .186264514923D-08  .530000000000D+02
     .302406000000D+06  .400000000000D+01
 5 16 12  7 14  0  0.0 -.735465437174D-04  .227373675443D-11  .000000000000D+00
     .870000000000D+02 -.299375000000D+02  .491484758027D-08  .300032892729D+00
    -.140815973282D-05  .489267078228D-02  .100415199995D-04  .515364543533D+04
     .309600000000D+06  .204890966415D-07  .164267758197D+01  .596046447754D-07
     .946133848672D+00  .176062500000D+03  .562620074104D+00 -.819355558019D-08
    -.725030200418D-10  .100000000000D+01  .192600000000D+04  .000000000000D+00
     .240000000000D+01  .000000000000D+00 -.107102096081D-07  .870000000000D+02
     .302406000000D+06  .400000000000D+01
 6 16 12  7 14  0  0.0  .282849185169D-03  .500222085975D-11  .000000000000D+00
     .730000000000D+02 -.620937500000D+02  .473519723997D-08 -.218459782461D+01
    -.315904617310D-05  .375764444470D-03  .587478280067D-05  .515357347679D+04
     .309600000000D+06  .502914190292D-07  .606741197686D+00  .931322574615D-08
     .965789302921D+00  .269812500000D+03 -.152560712672D+01 -.820284168128D-08
    -.464305054455D-10  .100000000000D+01  .192600000000D+04  .000000000000D+00
     .240000000000D+01  .000000000000D+00  .419095158577D-08  .730000000000D+02
     .302406000000D+06  .400000000000D+01
 7 16 12  7 14  0  0.0  .404275022447D-03 -.341060513165D-11  .000000000000D+00
     .450000000000D+02  .181250000000D+01  .454090343257D-08  .301019968176D+01
     .745058059692D-08  .100456420332D-01  .621005892754D-05  .515361627769D+04
     .309600000000D+06 -.279396772385D-07 -.251006465703D+01 -.949949026108D-07
     .964432978905D+00  .261625000000D+03 -.261320845254D+01 -.804033491222D-08
    -.288226291496D-09  .100000000000D+01  .192600000000D+04  .000000000000D+00
     .240000000000D+01  .000000000000D+00 -.111758708954D-07  .450000000000D+02
     .302406000000D+06  .400000000000D+01
 8 16 12  7 14  0  0.0 -.415742397308D-04 -.136424205266D-11  .000000000000D+00
     .200000000000D+01  .213125000000D+02  .456340436982D-08  .238047042198D+00
     .104121863842D-05  .217886082828D-02  .624358654022D-05  .515355173111D+04
     .309600000000D+06  .149011611938D-07 -.446338542786D+00 -.689178705215D-07
     .965409704938D+00  .259593750000D+03 -.978832099737D+00 -.828820237975D-08
     .335013954676D-09  .100000000000D+01  .192600000000D+04  .000000000000D+00
     .240000000000D+01  .000000000000D+00  .512227416039D-08  .200000000000D+01
     .302406000000D+06  .400000000000D+01
 9 16 12  7 14  0  0.0  .259038526565D-03  .738964445191D-11  .000000000000D+00
     .560000000000D+02  .571250000000D+02  .482912972407D-08 -.293149773928D+00
     .290945172310D-05  .787332770415D-03  .789761543274D-05  .515373170280D+04
     .309600000000D+06  .111758708954D-07  .269497169154D+01 -.204890966415D-07
     .954319151818D+00  .222312500000D+03  .175923108146D+01 -.821819946385D-08
     .125005206969D-09  .100000000000D+01  .192600000000D+04  .000000000000D+00
     .240000000000D+01  .000000000000D+00  .139698386192D-08  .560000000000D+02
     .302406000000D+06  .400000000000D+01
10 16 12  7 14  0  0.0 -.115902163088D-03 -.341060513165D-12  .000000000000D+00
     .890000000000D+02 -.152812500000D+02  .462340686917D-08  .162376530912D+01
    -.728294253349D-06  .197756662965D-02  .106003135443D-04  .515368015671D+04
     .309600000000D+06  .372529029846D-07  .165335253615D+01  .577419996262D-07
     .959326458541D+00  .174968750000D+03 -.295201512145D+01 -.804462080503D-08
    -.425017703693D-10  .100000000000D+01  .192600000000D+04  .000000000000D+00
     .240000000000D+01  .000000000000D+00  .232830643654D-08  .890000000000D+02
     .302406000000D+06  .400000000000D+01
11 16 12  7 14  0  0.0 -.673206523061D-03 -.909494701773D-12  .000000000000D+00
     .800000000000D+01 -.348125000000D+02  .621633036368D-08  .307762604124D+01
    -.188313424587D-05  .167099831160D-01  .373646616936D-05  .515368736267D+04
     .309600000000D+06  .268220901489D-06  .224630756544D+00 -.186264514923D-08
     .899083591515D+00  .271343750000D+03  .160465169193D+01 -.881000982941D-08
     .978612191697D-10  .100000000000D+01  .192600000000D+04  .000000000000D+00
     .240000000000D+01  .000000000000D+00 -.121071934700D-07  .800000000000D+01
     .302406000000D+06  .400000000000D+01
12 16 12  7 14  0  0.0  .389454420656D-03 -.113686837722D-12  .000000000000D+00
     .530000000000D+02  .122500000000D+02  .359622122562D-08  .242383900002D+01
     .629574060440D-06  .613501062617D-02  .876374542713D-05  .515362395096D+04
     .309600000000D+06 -.316649675369D-07 -.142934610623D+01 -.104308128357D-06
     .989747878035D+00  .225718750000D+03  .778924667510D+00 -.765674750570D-08
     .307155651409D-10  .100000000000D+01  .192600000000D+04  .000000000000D+00
     .240000000000D+01  .000000000000D+00 -.125728547573D-07  .530000000000D+02
     .302406000000D+06  .400000000000D+01
13 16 12  7 14  0  0.0 -.587962567806D-04 -.193267624127D-11  .000000000000D+00
     .980000000000D+02  .522812500000D+02  .441018370185D-08 -.223764856211D+01
     .268407166004D-05  .405520934146D-02  .729970633984D-05  .515368660736D+04
     .309600000000D+06  .111758708954D-07  .281856892654D+01  .707805156708D-07
     .970611910385D+00  .244500000000D+03  .188116258234D+01 -.796426031484D-08
     .350014579512D-10  .100000000000D+01  .192600000000D+04  .000000000000D+00
     .240000000000D+01  .000000000000D+00 -.111758708954D-07  .980000000000D+02
     .302406000000D+06  .400000000000D+01
14 16 12  7 14  0  0.0 -.484441407025D-04 -.170530256582D-11  .000000000000D+00
     .690000000000D+02  .519375000000D+02  .474484049879D-08 -.902829533697D+00
     .271946191788D-05  .864847458433D-02  .707991421223D-05  .515360536003D+04
     .309600000000D+06 -.167638063431D-07  .278027940550D+01  .178813934326D-06
     .963093038108D+00  .246593750000D+03 -.194891089644D+01 -.831784647169D-08
     .189293599124D-10  .100000000000D+01  .192600000000D+04  .000000000000D+00
     .240000000000D+01  .000000000000D+00 -.931322574615D-08  .690000000000D+02
     .302406000000D+06  .400000000000D+01
15 16 12  7 14  0  0.0 -.336717814207D-03 -.113686837722D-11  .000000000000D+00
     .300000000000D+02  .502500000000D+02  .531129266523D-08 -.127715005017D+01
     .261887907982D-05  .888525019400D-02  .736117362976D-05  .515371122932D+04
     .309600000000D+06  .152736902237D-06  .263764272326D+01 -.651925802231D-07
     .929947417917D+00  .220437500000D+03  .543983185346D+00 -.843106547343D-08
     .111790370803D-09  .100000000000D+01  .192600000000D+04  .000000000000D+00
     .240000000000D+01  .000000000000D+00 -.107102096081D-07  .300000000000D+02
     .302406000000D+06  .400000000000D+01
16 16 12  7 14  0  0.0  .184904783964D-04  .147792889038D-11  .000000000000D+00
     .500000000000D+02  .222812500000D+02  .361800784741D-08  .481311062389D+00
     .122748315334D-05  .884359236807D-02  .939890742302D-05  .515361714935D+04
     .309600000000D+06  .726431608200D-07 -.141051447967D+01  .160187482834D-06
     .990241197418D+00  .212531250000D+03  .380467474420D+00 -.780568228086D-08
    -.246438836595D-10  .100000000000D+01  .192600000000D+04  .000000000000D+00
     .240000000000D+01  .000000000000D+00 -.102445483208D-07  .500000000000D+02
     .302406000000D+06  .400000000000D+01
17 16 12  7 14  0  0.0 -.197536777705D-03  .909494701773D-12  .000000000000D+00
     .190000000000D+02  .159687500000D+02  .439375444608D-08 -.570966715170D+00
     .968575477600D-06  .115651049418D-01  .654160976410D-05  .515377903938D+04
     .309600000000D+06 -.143423676491D-06 -.391108544498D+00  .104308128357D-06
     .978607443797D+00  .266937500000D+03 -.190253471536D+01 -.827498754359D-08
     .347514475373D-09  .100000000000D+01  .192600000000D+04  .000000000000D+00
     .240000000000D+01  .000000000000D+00 -.107102096081D-07  .190000000000D+02
     .302406000000D+06  .400000000000D+01
